*******************************************************************************
Ephemeris / WWW_USER Tue Mar 11 05:34:45 2025 Pasadena, USA      / Horizons    
*******************************************************************************
Target body name: (2018 YU2)                      {source: JPL#5}
Center body name: Earth (399)                     {source: DE441}
Center-site name: Gemini South Obs., Cerro Pachon
*******************************************************************************
Start time      : A.D. 2018-Aug-27 22:33:00.0000 UT      
Stop  time      : A.D. 2018-Aug-28 10:54:00.0000 UT      
Step-size       : 1 minutes
*******************************************************************************
Target pole/equ : undefined
Target radii    : undefined                                                    
Center geodetic : 289.2634, -30.2406227, 2.71233  {E-lon(deg),Lat(deg),Alt(km)}
Center cylindric: 289.2634,5517.21435,-3194.81213 {E-lon(deg),Dxy(km),Dz(km)}
Center pole/equ : ITRF93                          {East-longitude positive}
Center radii    : 6378.137, 6378.137, 6356.752 km {Equator_a, b, pole_c}       
Target primary  : Sun
Vis. interferer : MOON (R_eq= 1737.400) km        {source: DE441}
Rel. light bend : Sun                             {source: DE441}
Rel. lght bnd GM: 1.3271E+11 km^3/s^2                                          
Small-body perts: Yes                             {source: SB441-N16}
Atmos refraction: NO (AIRLESS)
RA format       : HMS
Time format     : CAL 
Calendar mode   : Mixed Julian/Gregorian
RTS-only print  : NO       
EOP file        : eop.250310.p250606                                           
EOP coverage    : DATA-BASED 1962-JAN-20 TO 2025-MAR-10. PREDICTS-> 2025-JUN-05
Units conversion: 1 au= 149597870.700 km, c= 299792.458 km/s, 1 day= 86400.0 s 
Table cut-offs 1: Elevation (-90.0deg=NO ),Airmass (>38.000=NO), Daylight (YES)
Table cut-offs 2: Solar elongation (  0.0,180.0=NO ),Local Hour Angle( 0.0=NO )
Table cut-offs 3: RA/DEC angular rate (     0.0=NO )                           
*******************************************************************************
Initial IAU76/J2000 heliocentric ecliptic osculating elements (au, days, deg.):
  EPOCH=  2458477.5 ! 2018-Dec-25.00 (TDB)         Residual RMS= .22887        
   EC= .1533598773405833   QR= .920984914841031    TP= 2458549.1486254167      
   OM= 279.4515303175068   W=  253.4059234937716   IN= 2.850769624588425       
  Equivalent ICRF heliocentric cartesian coordinates (au, au/d):
   X=-6.842297687009524E-02  Y= 9.429126817220428E-01  Z= 4.143187104036840E-01
  VX=-1.695115058702848E-02 VY=-2.997207899955317E-03 VZ=-2.239432528215744E-03
Asteroid physical parameters (km, seconds, rotational period in hours):        
   GM= n.a.                RAD= n.a.               ROTPER= n.a.                
   H= 26.5                 G= .150                 B-V= n.a.                   
                           ALBEDO= n.a.            STYP= n.a.                  
*******************************************************************************
 Date__(UT)__HR:MN     R.A._________(ICRF)_________DEC
******************************************************
$$SOE
 2018-Aug-27 22:33 C   03 32 07.578569 +25 01 40.94133
 2018-Aug-27 22:34 C   03 32 07.686027 +25 01 41.44412
 2018-Aug-27 22:35 C   03 32 07.793482 +25 01 41.94701
 2018-Aug-27 22:36 C   03 32 07.900933 +25 01 42.44999
 2018-Aug-27 22:37 C   03 32 08.008382 +25 01 42.95306
 2018-Aug-27 22:38 C   03 32 08.115827 +25 01 43.45623
 2018-Aug-27 22:39 C   03 32 08.223268 +25 01 43.95950
 2018-Aug-27 22:40 C   03 32 08.330707 +25 01 44.46285
 2018-Aug-27 22:41 C   03 32 08.438141 +25 01 44.96630
 2018-Aug-27 22:42 C   03 32 08.545572 +25 01 45.46985
 2018-Aug-27 22:43 C   03 32 08.652999 +25 01 45.97349
 2018-Aug-27 22:44 C   03 32 08.760423 +25 01 46.47722
 2018-Aug-27 22:45 C   03 32 08.867843 +25 01 46.98105
 2018-Aug-27 22:46 C   03 32 08.975258 +25 01 47.48497
 2018-Aug-27 22:47 C   03 32 09.082670 +25 01 47.98898
 2018-Aug-27 22:48 C   03 32 09.190078 +25 01 48.49309
 2018-Aug-27 22:49 C   03 32 09.297482 +25 01 48.99729
 2018-Aug-27 22:50 N   03 32 09.404881 +25 01 49.50159
 2018-Aug-27 22:51 N   03 32 09.512276 +25 01 50.00597
 2018-Aug-27 22:52 N   03 32 09.619667 +25 01 50.51045
 2018-Aug-27 22:53 N   03 32 09.727053 +25 01 51.01503
 2018-Aug-27 22:54 N   03 32 09.834435 +25 01 51.51969
 2018-Aug-27 22:55 N   03 32 09.941812 +25 01 52.02445
 2018-Aug-27 22:56 N   03 32 10.049185 +25 01 52.52930
 2018-Aug-27 22:57 N   03 32 10.156553 +25 01 53.03424
 2018-Aug-27 22:58 N   03 32 10.263916 +25 01 53.53928
 2018-Aug-27 22:59 N   03 32 10.371274 +25 01 54.04441
 2018-Aug-27 23:00 N   03 32 10.478627 +25 01 54.54963
 2018-Aug-27 23:01 N   03 32 10.585975 +25 01 55.05494
 2018-Aug-27 23:02 N   03 32 10.693319 +25 01 55.56034
 2018-Aug-27 23:03 N   03 32 10.800657 +25 01 56.06583
 2018-Aug-27 23:04 N   03 32 10.907989 +25 01 56.57142
 2018-Aug-27 23:05 N   03 32 11.015317 +25 01 57.07710
 2018-Aug-27 23:06 N   03 32 11.122639 +25 01 57.58287
 2018-Aug-27 23:07 N   03 32 11.229956 +25 01 58.08873
 2018-Aug-27 23:08 N   03 32 11.337267 +25 01 58.59468
 2018-Aug-27 23:09 N   03 32 11.444573 +25 01 59.10072
 2018-Aug-27 23:10 N   03 32 11.551872 +25 01 59.60685
 2018-Aug-27 23:11 N   03 32 11.659167 +25 02 00.11308
 2018-Aug-27 23:12 N   03 32 11.766455 +25 02 00.61939
 2018-Aug-27 23:13 N   03 32 11.873738 +25 02 01.12579
 2018-Aug-27 23:14 N   03 32 11.981014 +25 02 01.63229
 2018-Aug-27 23:15 N   03 32 12.088285 +25 02 02.13887
 2018-Aug-27 23:16 N   03 32 12.195549 +25 02 02.64554
 2018-Aug-27 23:17 N   03 32 12.302808 +25 02 03.15231
 2018-Aug-27 23:18 A   03 32 12.410060 +25 02 03.65916
 2018-Aug-27 23:19 A   03 32 12.517306 +25 02 04.16610
 2018-Aug-27 23:20 A   03 32 12.624545 +25 02 04.67313
 2018-Aug-27 23:21 A   03 32 12.731778 +25 02 05.18025
 2018-Aug-27 23:22 A   03 32 12.839005 +25 02 05.68746
 2018-Aug-27 23:23 A   03 32 12.946224 +25 02 06.19476
 2018-Aug-27 23:24 A   03 32 13.053438 +25 02 06.70215
 2018-Aug-27 23:25 A   03 32 13.160644 +25 02 07.20962
 2018-Aug-27 23:26 A   03 32 13.267844 +25 02 07.71719
 2018-Aug-27 23:27 A   03 32 13.375037 +25 02 08.22484
 2018-Aug-27 23:28 A   03 32 13.482223 +25 02 08.73258
 2018-Aug-27 23:29 Am  03 32 13.589402 +25 02 09.24040
 2018-Aug-27 23:30 Am  03 32 13.696574 +25 02 09.74832
 2018-Aug-27 23:31 Am  03 32 13.803739 +25 02 10.25632
 2018-Aug-27 23:32 Am  03 32 13.910896 +25 02 10.76441
 2018-Aug-27 23:33 Am  03 32 14.018047 +25 02 11.27258
 2018-Aug-27 23:34 Am  03 32 14.125190 +25 02 11.78084
 2018-Aug-27 23:35 Am  03 32 14.232325 +25 02 12.28919
 2018-Aug-27 23:36 Am  03 32 14.339453 +25 02 12.79763
 2018-Aug-27 23:37 Am  03 32 14.446574 +25 02 13.30615
 2018-Aug-27 23:38 Am  03 32 14.553687 +25 02 13.81476
 2018-Aug-27 23:39 Am  03 32 14.660792 +25 02 14.32345
 2018-Aug-27 23:40 Am  03 32 14.767890 +25 02 14.83223
 2018-Aug-27 23:41 Am  03 32 14.874980 +25 02 15.34109
 2018-Aug-27 23:42 Am  03 32 14.982061 +25 02 15.85004
 2018-Aug-27 23:43 Am  03 32 15.089135 +25 02 16.35907
 2018-Aug-27 23:44 Am  03 32 15.196201 +25 02 16.86819
 2018-Aug-27 23:45 Am  03 32 15.303259 +25 02 17.37740
 2018-Aug-27 23:46  m  03 32 15.410309 +25 02 17.88669
 2018-Aug-27 23:47  m  03 32 15.517350 +25 02 18.39606
 2018-Aug-27 23:48  m  03 32 15.624383 +25 02 18.90552
 2018-Aug-27 23:49  m  03 32 15.731408 +25 02 19.41506
 2018-Aug-27 23:50  m  03 32 15.838424 +25 02 19.92468
 2018-Aug-27 23:51  m  03 32 15.945432 +25 02 20.43439
 2018-Aug-27 23:52  m  03 32 16.052431 +25 02 20.94418
 2018-Aug-27 23:53  m  03 32 16.159422 +25 02 21.45405
 2018-Aug-27 23:54  m  03 32 16.266404 +25 02 21.96401
 2018-Aug-27 23:55  m  03 32 16.373378 +25 02 22.47405
 2018-Aug-27 23:56  m  03 32 16.480342 +25 02 22.98417
 2018-Aug-27 23:57  m  03 32 16.587298 +25 02 23.49437
 2018-Aug-27 23:58  m  03 32 16.694244 +25 02 24.00465
 2018-Aug-27 23:59  m  03 32 16.801182 +25 02 24.51502
 2018-Aug-28 00:00  m  03 32 16.908111 +25 02 25.02547
 2018-Aug-28 00:01  m  03 32 17.015030 +25 02 25.53600
 2018-Aug-28 00:02  m  03 32 17.121940 +25 02 26.04661
 2018-Aug-28 00:03  m  03 32 17.228841 +25 02 26.55730
 2018-Aug-28 00:04  m  03 32 17.335733 +25 02 27.06807
 2018-Aug-28 00:05  m  03 32 17.442615 +25 02 27.57892
 2018-Aug-28 00:06  m  03 32 17.549488 +25 02 28.08985
 2018-Aug-28 00:07  m  03 32 17.656352 +25 02 28.60086
 2018-Aug-28 00:08  m  03 32 17.763205 +25 02 29.11195
 2018-Aug-28 00:09  m  03 32 17.870049 +25 02 29.62312
 2018-Aug-28 00:10  m  03 32 17.976884 +25 02 30.13437
 2018-Aug-28 00:11  m  03 32 18.083709 +25 02 30.64570
 2018-Aug-28 00:12  m  03 32 18.190523 +25 02 31.15710
 2018-Aug-28 00:13  m  03 32 18.297328 +25 02 31.66859
 2018-Aug-28 00:14  m  03 32 18.404123 +25 02 32.18015
 2018-Aug-28 00:15  m  03 32 18.510908 +25 02 32.69179
 2018-Aug-28 00:16  m  03 32 18.617683 +25 02 33.20351
 2018-Aug-28 00:17  m  03 32 18.724448 +25 02 33.71530
 2018-Aug-28 00:18  m  03 32 18.831202 +25 02 34.22718
 2018-Aug-28 00:19  m  03 32 18.937947 +25 02 34.73913
 2018-Aug-28 00:20  m  03 32 19.044681 +25 02 35.25115
 2018-Aug-28 00:21  m  03 32 19.151404 +25 02 35.76325
 2018-Aug-28 00:22  m  03 32 19.258117 +25 02 36.27543
 2018-Aug-28 00:23  m  03 32 19.364820 +25 02 36.78768
 2018-Aug-28 00:24  m  03 32 19.471512 +25 02 37.30001
 2018-Aug-28 00:25  m  03 32 19.578193 +25 02 37.81242
 2018-Aug-28 00:26  m  03 32 19.684864 +25 02 38.32489
 2018-Aug-28 00:27  m  03 32 19.791524 +25 02 38.83745
 2018-Aug-28 00:28  m  03 32 19.898173 +25 02 39.35008
 2018-Aug-28 00:29  m  03 32 20.004812 +25 02 39.86278
 2018-Aug-28 00:30  m  03 32 20.111439 +25 02 40.37555
 2018-Aug-28 00:31  m  03 32 20.218056 +25 02 40.88840
 2018-Aug-28 00:32  m  03 32 20.324661 +25 02 41.40132
 2018-Aug-28 00:33  m  03 32 20.431255 +25 02 41.91432
 2018-Aug-28 00:34  m  03 32 20.537838 +25 02 42.42739
 2018-Aug-28 00:35  m  03 32 20.644410 +25 02 42.94053
